{
  "type": "FeatureCollection",
  "features": [
    {
      "type": "Feature",
      "properties": {
        "norad_id": 66940,
        "name": "STARLINK-36121",
        "group": "last-30-days",
        "lat": 29.122656340267433,
        "lon": 136.74269483721113,
        "alt_km": 398.31600364123915,
        "timestamp": "2025-12-26T14:28:46.397606+00:00",
        "meta_object_name": "STARLINK-36121",
        "meta_object_id": "2025-286R",
        "meta_epoch": "2025-12-26T06:00:02.999808",
        "meta_mean_motion": 15.5651202,
        "meta_eccentricity": 0.00013348,
        "meta_inclination": 53.1592,
        "meta_ra_of_asc_node": 343.1376,
        "meta_arg_of_pericenter": 88.4337,
        "meta_mean_anomaly": 234.3082,
        "meta_ephemeris_type": 0,
        "meta_classification_type": "U",
        "meta_norad_cat_id": 66940,
        "meta_element_set_no": 999,
        "meta_rev_at_epoch": 416,
        "meta_bstar": -0.031975162,
        "meta_mean_motion_dot": -0.02059277,
        "meta_mean_motion_ddot": 0,
        "tle_line1": "1 66940U 25286R   25360.25003472 -.02059277  00000+0 -31975-1 0  9996",
        "tle_line2": "2 66940  53.1592 343.1376 0001334  88.4337 234.3082 15.56512020  4163"
      },
      "geometry": {
        "type": "Point",
        "coordinates": [
          136.74269483721113,
          29.122656340267433
        ]
      }
    },
    {
      "type": "Feature",
      "properties": {
        "norad_id": 66941,
        "name": "STARLINK-36088",
        "group": "last-30-days",
        "lat": 11.26373642803214,
        "lon": 152.79641217056928,
        "alt_km": 395.86029960157157,
        "timestamp": "2025-12-26T14:28:46.397616+00:00",
        "meta_object_name": "STARLINK-36088",
        "meta_object_id": "2025-286S",
        "meta_epoch": "2025-12-26T06:00:02.999808",
        "meta_mean_motion": 15.58419852,
        "meta_eccentricity": 0.00012136,
        "meta_inclination": 53.1592,
        "meta_ra_of_asc_node": 343.0949,
        "meta_arg_of_pericenter": 88.147,
        "meta_mean_anomaly": 255.4564,
        "meta_ephemeris_type": 0,
        "meta_classification_type": "U",
        "meta_norad_cat_id": 66941,
        "meta_element_set_no": 999,
        "meta_rev_at_epoch": 416,
        "meta_bstar": -0.029108983,
        "meta_mean_motion_dot": -0.01982533,
        "meta_mean_motion_ddot": 0,
        "tle_line1": "1 66941U 25286S   25360.25003472 -.01982533  00000+0 -29109-1 0  9992",
        "tle_line2": "2 66941  53.1592 343.0949 0001213  88.1470 255.4564 15.58419852  4160"
      },
      "geometry": {
        "type": "Point",
        "coordinates": [
          152.79641217056928,
          11.26373642803214
        ]
      }
    },
    {
      "type": "Feature",
      "properties": {
        "norad_id": 66942,
        "name": "STARLINK-36100",
        "group": "last-30-days",
        "lat": 27.71953520689251,
        "lon": 138.2269199576866,
        "alt_km": 398.5901678186756,
        "timestamp": "2025-12-26T14:28:46.397626+00:00",
        "meta_object_name": "STARLINK-36100",
        "meta_object_id": "2025-286T",
        "meta_epoch": "2025-12-26T06:00:02.999808",
        "meta_mean_motion": 15.56511593,
        "meta_eccentricity": 0.00012881,
        "meta_inclination": 53.1593,
        "meta_ra_of_asc_node": 343.1334,
        "meta_arg_of_pericenter": 88.0086,
        "meta_mean_anomaly": 236.6499,
        "meta_ephemeris_type": 0,
        "meta_classification_type": "U",
        "meta_norad_cat_id": 66942,
        "meta_element_set_no": 999,
        "meta_rev_at_epoch": 409,
        "meta_bstar": -0.031948691,
        "meta_mean_motion_dot": -0.02057695,
        "meta_mean_motion_ddot": 0,
        "tle_line1": "1 66942U 25286T   25360.25003472 -.02057695  00000+0 -31949-1 0  9991",
        "tle_line2": "2 66942  53.1593 343.1334 0001288  88.0086 236.6499 15.56511593  4098"
      },
      "geometry": {
        "type": "Point",
        "coordinates": [
          138.2269199576866,
          27.71953520689251
        ]
      }
    },
    {
      "type": "Feature",
      "properties": {
        "norad_id": 66943,
        "name": "STARLINK-36109",
        "group": "last-30-days",
        "lat": 26.300974750794946,
        "lon": 139.67334174408853,
        "alt_km": 398.7964991949975,
        "timestamp": "2025-12-26T14:28:46.397648+00:00",
        "meta_object_name": "STARLINK-36109",
        "meta_object_id": "2025-286U",
        "meta_epoch": "2025-12-26T06:00:02.999808",
        "meta_mean_motion": 15.56513731,
        "meta_eccentricity": 0.00012456,
        "meta_inclination": 53.1593,
        "meta_ra_of_asc_node": 343.1296,
        "meta_arg_of_pericenter": 94.8921,
        "meta_mean_anomaly": 231.6817,
        "meta_ephemeris_type": 0,
        "meta_classification_type": "U",
        "meta_norad_cat_id": 66943,
        "meta_element_set_no": 999,
        "meta_rev_at_epoch": 409,
        "meta_bstar": -0.031960311,
        "meta_mean_motion_dot": -0.02058484,
        "meta_mean_motion_ddot": 0,
        "tle_line1": "1 66943U 25286U   25360.25003472 -.02058484  00000+0 -31960-1 0  9992",
        "tle_line2": "2 66943  53.1593 343.1296 0001245  94.8921 231.6817 15.56513731  4097"
      },
      "geometry": {
        "type": "Point",
        "coordinates": [
          139.67334174408853,
          26.300974750794946
        ]
      }
    },
    {
      "type": "Feature",
      "properties": {
        "norad_id": 66944,
        "name": "STARLINK-36112",
        "group": "last-30-days",
        "lat": 24.868946589103818,
        "lon": 141.08278983032287,
        "alt_km": 399.0215468653905,
        "timestamp": "2025-12-26T14:28:46.397658+00:00",
        "meta_object_name": "STARLINK-36112",
        "meta_object_id": "2025-286V",
        "meta_epoch": "2025-12-26T06:00:02.999808",
        "meta_mean_motion": 15.56514591,
        "meta_eccentricity": 0.00012893,
        "meta_inclination": 53.1593,
        "meta_ra_of_asc_node": 343.1248,
        "meta_arg_of_pericenter": 96.0646,
        "meta_mean_anomaly": 232.4242,
        "meta_ephemeris_type": 0,
        "meta_classification_type": "U",
        "meta_norad_cat_id": 66944,
        "meta_element_set_no": 999,
        "meta_rev_at_epoch": 416,
        "meta_bstar": -0.031987212,
        "meta_mean_motion_dot": -0.02060117,
        "meta_mean_motion_ddot": 0,
        "tle_line1": "1 66944U 25286V   25360.25003472 -.02060117  00000+0 -31987-1 0  9998",
        "tle_line2": "2 66944  53.1593 343.1248 0001289  96.0646 232.4242 15.56514591  4165"
      },
      "geometry": {
        "type": "Point",
        "coordinates": [
          141.08278983032287,
          24.868946589103818
        ]
      }
    },
    {
      "type": "Feature",
      "properties": {
        "norad_id": 66945,
        "name": "STARLINK-36110",
        "group": "last-30-days",
        "lat": 23.423334180526656,
        "lon": 142.46140856945092,
        "alt_km": 399.300591780956,
        "timestamp": "2025-12-26T14:28:46.397671+00:00",
        "meta_object_name": "STARLINK-36110",
        "meta_object_id": "2025-286W",
        "meta_epoch": "2025-12-26T06:00:02.999808",
        "meta_mean_motion": 15.5651366,
        "meta_eccentricity": 0.00012475,
        "meta_inclination": 53.1594,
        "meta_ra_of_asc_node": 343.1211,
        "meta_arg_of_pericenter": 95.3522,
        "meta_mean_anomaly": 235.0529,
        "meta_ephemeris_type": 0,
        "meta_classification_type": "U",
        "meta_norad_cat_id": 66945,
        "meta_element_set_no": 999,
        "meta_rev_at_epoch": 416,
        "meta_bstar": -0.031937613,
        "meta_mean_motion_dot": -0.02057175,
        "meta_mean_motion_ddot": 0,
        "tle_line1": "1 66945U 25286W   25360.25003472 -.02057175  00000+0 -31938-1 0  9995",
        "tle_line2": "2 66945  53.1594 343.1211 0001247  95.3522 235.0529 15.56513660  4169"
      },
      "geometry": {
        "type": "Point",
        "coordinates": [
          142.46140856945092,
          23.423334180526656
        ]
      }
    },
    {
      "type": "Feature",
      "properties": {
        "norad_id": 66946,
        "name": "STARLINK-36115",
        "group": "last-30-days",
        "lat": 21.96551618186785,
        "lon": 143.80978429140453,
        "alt_km": 399.5657538083078,
        "timestamp": "2025-12-26T14:28:46.397681+00:00",
        "meta_object_name": "STARLINK-36115",
        "meta_object_id": "2025-286X",
        "meta_epoch": "2025-12-26T06:00:02.999808",
        "meta_mean_motion": 15.56511505,
        "meta_eccentricity": 0.00012512,
        "meta_inclination": 53.1595,
        "meta_ra_of_asc_node": 343.1169,
        "meta_arg_of_pericenter": 94.4322,
        "meta_mean_anomaly": 237.891,
        "meta_ephemeris_type": 0,
        "meta_classification_type": "U",
        "meta_norad_cat_id": 66946,
        "meta_element_set_no": 999,
        "meta_rev_at_epoch": 416,
        "meta_bstar": -0.031896495,
        "meta_mean_motion_dot": -0.02054664,
        "meta_mean_motion_ddot": 0,
        "tle_line1": "1 66946U 25286X   25360.25003472 -.02054664  00000+0 -31896-1 0  9999",
        "tle_line2": "2 66946  53.1595 343.1169 0001251  94.4322 237.8910 15.56511505  4166"
      },
      "geometry": {
        "type": "Point",
        "coordinates": [
          143.80978429140453,
          21.96551618186785
        ]
      }
    }
  ]
}